NORAD_CAT_ID,OBJECT_NAME,OBJECT_TYPE,EPOCH,MEAN_MOTION,ECCENTRICITY,INCLINATION,RA_OF_ASC_NODE,ARG_OF_PERICENTER,MEAN_ANOMALY,BSTAR,MEAN_MOTION_DOT,MEAN_MOTION_DDOT,TLE_LINE0,TLE_LINE1,TLE_LINE2,SEMIMAJOR_AXIS,PERIOD,APOGEE,PERIGEE,DECAYED
50829.0,STARLINK-3294,PAYLOAD,2024-02-17 22:25:04,15.0883052,0.0001507,53.2164,299.3956,84.8735,275.2429,-7.1109e-05,-1.419e-05,0.0,0 STARLINK-3294,1 50829U 22001AC  24048.93408378 -.00001419  00000-0 -71109-4 0  9998,2 50829  53.2164 299.3956 0001507  84.8735 275.2429 15.08830520117066,6917.909,95.438,540.817,538.732,0.0
50829.0,STARLINK-3294,PAYLOAD,2024-02-18 03:11:14,15.0883731,0.0001612,53.2179,298.5012,86.0917,274.026,4.9248e-05,4.96e-06,0.0,0 STARLINK-3294,1 50829U 22001AC  24049.13280099  .00000496  00000-0  49248-4 0  9990,2 50829  53.2179 298.5012 0001612  86.0917 274.0260 15.08837310118367,6917.889,95.438,540.869,538.638,0.0
50829.0,STARLINK-3294,PAYLOAD,2024-02-18 09:32:46,15.08841669,0.0001557,53.2174,297.3123,89.4244,270.6926,4.8614e-05,4.86e-06,0.0,0 STARLINK-3294,1 50829U 22001AC  24049.39775920  .00000486  00000-0  48614-4 0  9995,2 50829  53.2174 297.3123 0001557  89.4244 270.6926 15.08841669117137,6917.875,95.437,540.817,538.663,0.0
50829.0,STARLINK-3294,PAYLOAD,2024-02-18 22:15:49,15.08877339,0.0001626,53.2169,294.9345,80.06,280.0576,0.00062174,9.631e-05,0.0,0 STARLINK-3294,1 50829U 22001AC  24049.92765880  .00009631  00000-0  62174-3 0  9995,2 50829  53.2169 294.9345 0001626  80.0600 280.0576 15.08877339117218,6917.766,95.435,540.756,538.506,0.0
50829.0,STARLINK-3294,PAYLOAD,2024-02-19 01:26:37,15.08839973,0.0001638,53.217,294.34,85.2651,274.8528,-0.00010861,-2.016e-05,0.0,0 STARLINK-3294,1 50829U 22001AC  24050.06015087 -.00002016  00000-0 -10861-3 0  9997,2 50829  53.2170 294.3400 0001638  85.2651 274.8528 15.08839973118505,6917.88,95.438,540.879,538.612,0.0
50829.0,STARLINK-3294,PAYLOAD,2024-02-19 09:23:33,15.08824934,0.0001901,53.2185,292.8517,89.6855,270.4355,-4.5282e-05,-1.008e-05,0.0,0 STARLINK-3294,1 50829U 22001AC  24050.39136098 -.00001008  00000-0 -45282-4 0  9995,2 50829  53.2185 292.8517 0001901  89.6855 270.4355 15.08824934118556,6917.926,95.439,541.107,538.476,0.0
50829.0,STARLINK-3294,PAYLOAD,2024-02-19 22:06:38,15.08830224,0.0001411,53.2169,290.4717,99.1299,260.9853,-0.00010571,-1.969e-05,0.0,0 STARLINK-3294,1 50829U 22001AC  24050.92127930 -.00001969  00000-0 -10571-3 0  9997,2 50829  53.2169 290.4717 0001411  99.1299 260.9853 15.08830224117362,6917.91,95.438,540.751,538.799,0.0
50829.0,STARLINK-3294,PAYLOAD,2024-02-19 23:42:01,15.08831635,0.0001407,53.217,290.1745,99.2505,260.8646,-8.2053e-05,-1.593e-05,0.0,0 STARLINK-3294,1 50829U 22001AC  24050.98751887 -.00001593  00000-0 -82053-4 0  9995,2 50829  53.2170 290.1745 0001407  99.2505 260.8646 15.08831635118646,6917.906,95.438,540.744,538.798,0.0
50829.0,STARLINK-3294,PAYLOAD,2024-02-20 09:14:20,15.08834683,0.0001443,53.2168,288.3921,94.799,265.3167,-7.2293e-06,-4.03e-06,0.0,0 STARLINK-3294,1 50829U 22001AC  24051.38495941 -.00000403  00000-0 -72293-5 0  9991,2 50829  53.2168 288.3921 0001443  94.7990 265.3167 15.08834683117436,6917.897,95.438,540.76,538.763,0.0
50829.0,STARLINK-3294,PAYLOAD,2024-02-20 21:57:25,15.08842171,0.0001342,53.2159,286.0133,99.9017,260.2127,-1.3824e-05,-5.08e-06,0.0,0 STARLINK-3294,1 50829U 22001AC  24051.91487559 -.00000508  00000-0 -13824-4 0  9996,2 50829  53.2159 286.0133 0001342  99.9017 260.2127 15.08842171117511,6917.874,95.437,540.667,538.81,0.0
50829.0,STARLINK-3294,PAYLOAD,2024-02-21 01:08:11,15.08845419,0.0001386,53.2163,285.4176,104.3608,255.7538,0.00015576,2.192e-05,0.0,0 STARLINK-3294,1 50829U 22001AC  24052.04735535  .00002192  00000-0  15576-3 0  9995,2 50829  53.2163 285.4176 0001386 104.3608 255.7538 15.08845419118807,6917.864,95.437,540.688,538.77,0.0
50829.0,STARLINK-3294,PAYLOAD,2024-02-21 09:05:07,15.08840553,0.0001295,53.2156,283.9314,103.0909,257.0228,0.00024541,3.62e-05,0.0,0 STARLINK-3294,1 50829U 22001AC  24052.37856005  .00003620  00000-0  24541-3 0  9996,2 50829  53.2156 283.9314 0001295 103.0909 257.0228 15.08840553118855,6917.879,95.438,540.64,538.848,0.0
50829.0,STARLINK-3294,PAYLOAD,2024-02-21 21:48:12,15.08841572,0.0001372,53.2163,281.5513,101.9463,258.1683,0.00031023,4.653e-05,0.0,0 STARLINK-3294,1 50829U 22001AC  24052.90848246  .00004653  00000-0  31023-3 0  9993,2 50829  53.2163 281.5513 0001372 101.9463 258.1683 15.08841572117663,6917.876,95.437,540.69,538.791,0.0
50829.0,STARLINK-3294,PAYLOAD,2024-02-22 00:58:59,15.08843688,0.0001383,53.2166,280.9577,106.0957,254.0188,0.00034267,5.17e-05,0.0,0 STARLINK-3294,1 50829U 22001AC  24053.04096207  .00005170  00000-0  34267-3 0  9999,2 50829  53.2166 280.9577 0001383 106.0957 254.0188 15.08843688117682,6917.869,95.437,540.691,538.777,0.0
50829.0,STARLINK-3294,PAYLOAD,2024-02-22 20:03:34,15.08842988,0.0001441,53.2153,277.3867,106.6865,253.4285,-0.00038081,-6.344e-05,0.0,0 STARLINK-3294,1 50829U 22001AC  24053.83581957 -.00006344  00000-0 -38081-3 0  9991,2 50829  53.2153 277.3867 0001441 106.6865 253.4285 15.08842988119077,6917.871,95.437,540.733,538.739,0.0
50829.0,STARLINK-3294,PAYLOAD,2024-02-22 21:38:58,15.08836992,0.0001405,53.215,277.0905,96.5962,263.519,-0.0003331,-5.585e-05,0.0,0 STARLINK-3294,1 50829U 22001AC  24053.90206335 -.00005585  00000-0 -33310-3 0  9999,2 50829  53.2150 277.0905 0001405  96.5962 263.5190 15.08836992117814,6917.89,95.438,540.727,538.783,0.0
50829.0,STARLINK-3294,PAYLOAD,2024-02-23 07:11:17,15.08829344,0.0001433,53.2149,275.3063,95.237,264.8786,-0.00045555,-7.529e-05,0.0,0 STARLINK-3294,1 50829U 22001AC  24054.29950592 -.00007529  00000-0 -45555-3 0  9997,2 50829  53.2149 275.3063 0001433  95.2370 264.8786 15.08829344119144,6917.913,95.438,540.769,538.787,0.0
50829.0,STARLINK-3294,PAYLOAD,2024-02-23 13:32:50,15.08824153,0.000147,53.2157,274.1193,97.7838,262.3321,-0.0002553,-4.347e-05,0.0,0 STARLINK-3294,1 50829U 22001AC  24054.56447520 -.00004347  00000-0 -25530-3 0  9995,2 50829  53.2157 274.1193 0001470  97.7838 262.3321 15.08824153117915,6917.929,95.439,540.811,538.777,0.0
50829.0,STARLINK-3294,PAYLOAD,2024-02-23 21:29:46,15.08820374,0.000151,53.2161,272.6327,97.9501,262.1663,-0.00031328,-5.268e-05,0.0,0 STARLINK-3294,1 50829U 22001AC  24054.89567962 -.00005268  00000-0 -31328-3 0  9999,2 50829  53.2161 272.6327 0001510  97.9501 262.1663 15.08820374119231,6917.94,95.439,540.85,538.761,0.0
50829.0,STARLINK-3294,PAYLOAD,2024-02-24 07:02:05,15.08825386,0.0001574,53.2162,270.8483,98.1966,261.9205,-0.00028787,-4.865e-05,0.0,0 STARLINK-3294,1 50829U 22001AC  24055.29312134 -.00004865  00000-0 -28787-3 0  9990,2 50829  53.2162 270.8483 0001574  98.1966 261.9205 15.08825386119296,6917.925,95.438,540.879,538.701,0.0
50829.0,STARLINK-3294,PAYLOAD,2024-02-24 21:20:34,15.08821803,0.0001561,53.2156,268.1722,100.5063,259.6105,0.0002872,4.284e-05,0.0,0 STARLINK-3294,1 50829U 22001AC  24055.88929121  .00004284  00000-0  28720-3 0  9995,2 50829  53.2156 268.1722 0001561 100.5063 259.6105 15.08821803118110,6917.936,95.439,540.881,538.721,0.0
50829.0,STARLINK-3294,PAYLOAD,2024-02-25 13:14:26,15.08837201,0.0001471,53.2154,265.1971,93.9065,266.2095,0.00052827,8.129e-05,0.0,0 STARLINK-3294,1 50829U 22001AC  24056.55169287  .00008129  00000-0  52827-3 0  9996,2 50829  53.2154 265.1971 0001471  93.9065 266.2095 15.08837201119480,6917.889,95.438,540.772,538.736,0.0
50829.0,STARLINK-3294,PAYLOAD,2024-02-25 21:11:21,15.08858921,0.000141,53.2148,263.7104,93.7695,266.3458,0.00086878,0.00013573,0.0,0 STARLINK-3294,1 50829U 22001AC  24056.88288841  .00013573  00000-0  86878-3 0  9992,2 50829  53.2148 263.7104 0001410  93.7695 266.3458 15.08858921118266,6917.823,95.436,540.663,538.712,0.0
50829.0,STARLINK-3294,PAYLOAD,2024-02-26 13:05:12,15.08850625,0.0001565,53.2144,260.7368,82.7435,277.3735,0.0004374,6.682e-05,0.0,0 STARLINK-3294,1 50829U 22001AC  24057.54528879  .00006682  00000-0  43740-3 0  9998,2 50829  53.2144 260.7368 0001565  82.7435 277.3735 15.08850625118366,6917.848,95.437,540.796,538.63,0.0
50829.0,STARLINK-3294,PAYLOAD,2024-02-26 19:26:45,15.08842226,0.000142,53.2144,259.5469,81.9691,278.1463,0.00016718,2.374e-05,0.0,0 STARLINK-3294,1 50829U 22001AC  24057.81025001  .00002374  00000-0  16718-3 0  9996,2 50829  53.2144 259.5469 0001420  81.9691 278.1463 15.08842226119679,6917.874,95.437,540.721,538.756,0.0
50829.0,STARLINK-3294,PAYLOAD,2024-02-26 21:02:08,15.08839665,0.0001297,53.2137,259.2496,93.6885,266.4255,-3.6327e-06,-3.46e-06,0.0,0 STARLINK-3294,1 50829U 22001AC  24057.87648962 -.00000346  00000-0 -36327-5 0  9998,2 50829  53.2137 259.2496 0001297  93.6885 266.4255 15.08839665118418,6917.881,95.438,540.644,538.849,0.0
50829.0,STARLINK-3294,PAYLOAD,2024-02-27 12:56:00,15.08841998,0.0001438,53.2146,256.2755,86.0427,274.073,5.0842e-05,5.21e-06,0.0,0 STARLINK-3294,1 50829U 22001AC  24058.53889066  .00000521  00000-0  50842-4 0  9994,2 50829  53.2146 256.2755 0001438  86.0427 274.0730 15.08841998118514,6917.874,95.437,540.734,538.744,0.0
50829.0,STARLINK-3294,PAYLOAD,2024-02-27 22:28:18,15.08849874,0.0001452,53.2151,254.4915,84.9004,275.2154,0.00012619,1.721e-05,0.0,0 STARLINK-3294,1 50829U 22001AC  24058.93632627  .00001721  00000-0  12619-3 0  9999,2 50829  53.2151 254.4915 0001452  84.9004 275.2154 15.08849874118572,6917.85,95.437,540.72,538.711,0.0
50829.0,STARLINK-3294,PAYLOAD,2024-02-28 12:46:47,15.08839629,0.0001465,53.2159,251.8137,92.4342,267.6818,8.7392e-05,1.103e-05,0.0,0 STARLINK-3294,1 50829U 22001AC  24059.53249088  .00001103  00000-0  87392-4 0  9996,2 50829  53.2159 251.8137 0001465  92.4342 267.6818 15.08839629119930,6917.882,95.438,540.76,538.733,0.0
50829.0,STARLINK-3294,PAYLOAD,2024-02-28 19:08:19,15.0884164,0.0001403,53.2157,250.6255,89.5016,270.6137,0.00011889,1.605e-05,0.0,0 STARLINK-3294,1 50829U 22001AC  24059.79744883  .00001605  00000-0  11889-3 0  9991,2 50829  53.2157 250.6255 0001403  89.5016 270.6137 15.08841640118701,6917.875,95.437,540.711,538.77,0.0
